SPACEBEE-114            
1 52010U 22026C   22205.51449137  .00006677  00000+0  34645-3 0  9995
2 52010  97.5034 204.9714 0027461 144.5565 215.7500 15.16140031 19816
SPACEBEE-126            
1 52011U 22026D   22205.51721931  .00006660  00000+0  34595-3 0  9997
2 52011  97.5021 204.9452 0027881 142.2093 218.1105 15.16090230 19801
SPACEBEE-118            
1 52012U 22026E   22205.55885612  .00007627  00000+0  39133-3 0  9996
2 52012  97.5026 205.0599 0026661 146.5438 213.7486 15.16502407 19825
SPACEBEE-120            
1 52013U 22026F   22205.50002638  .00007022  00000+0  36199-3 0  9999
2 52013  97.5016 204.9645 0028807 140.5046 219.8294 15.16314195 19805
SPACEBEE-122            
1 52014U 22026G   22205.43346274  .00006635  00000+0  34252-3 0  9996
2 52014  97.5020 204.9039 0027584 142.9084 217.4062 15.16318822 19793
SPACEBEE-119            
1 52015U 22026H   22205.51318377  .00005724  00000+0  29845-3 0  9999
2 52015  97.5030 204.9713 0028552 142.9213 217.4000 15.16004568 19807
SPACEBEE-115            
1 52016U 22026J   22205.50400190  .00006797  00000+0  35120-3 0  9998
2 52016  97.5034 204.9842 0028036 143.2107 217.1057 15.16265402 19803
SPACEBEENZ-14           
1 52018U 22026L   22205.54138282  .00009301  00000+0  47072-3 0  9997
2 52018  97.5027 205.0802 0027811 142.5561 217.7617 15.16894064 19812
SPACEBEENZ-11           
1 52019U 22026M   22205.53609310  .00009255  00000+0  46672-3 0  9995
2 52019  97.5027 205.0860 0027736 142.3881 217.9299 15.17020855 19779
SPACEBEE-127            
1 52020U 22026N   22205.50811782  .00006467  00000+0  33529-3 0  9991
2 52020  97.5021 204.9595 0028042 142.7853 217.5331 15.16163957 19753
SPACEBEE-125            
1 52021U 22026P   22205.55468224  .00008730  00000+0  44507-3 0  9999
2 52021  97.5012 205.0428 0029836 142.6588 217.6727 15.16604771 19683
SPACEBEE-117            
1 52022U 22026Q   22205.50593873  .00006318  00000+0  32725-3 0  9993
2 52022  97.5034 204.9825 0028099 142.8464 217.4721 15.16205215 19673
SPACEBEE-116            
1 52023U 22026R   22205.50181453  .00006998  00000+0  36090-3 0  9994
2 52023  97.5034 204.9885 0027862 143.2610 217.0540 15.16326340 19673
SPACEBEE-113            
1 52024U 22026S   22205.49680088  .00007638  00000+0  39284-3 0  9991
2 52024  97.5029 204.9896 0029853 140.1979 220.1452 15.16336942 19672
SPACEBEE-112            
1 52025U 22026T   22205.55600939  .00008672  00000+0  44328-3 0  9990
2 52025  97.5030 205.0642 0027881 142.7084 217.6092 15.16563491 19683
SPACEBEENZ-13           
1 52026U 22026U   22205.54012172  .00009383  00000+0  47433-3 0  9996
2 52026  97.5028 205.0810 0027762 142.5158 217.8018 15.16932373 19595
SPACEBEE-123            
1 52027U 22026V   22205.57655930  .00006045  00000+0  31479-3 0  9990
2 52027  97.5016 205.0170 0028145 142.6231 217.6967 15.16037139 19598
SPACEBEENZ-12           
1 52028U 22026W   22205.54750400  .00008752  00000+0  44508-3 0  9990
2 52028  97.5039 205.0817 0027846 142.8083 217.5086 15.16742226 19687
SPACEBEE-124            
1 52029U 22026X   22205.51196509  .00005926  00000+0  30866-3 0  9994
2 52029  97.5015 204.9498 0028312 142.8877 217.4320 15.16030638 18300
SPACEBEE-136            
1 52164U 22033H   22205.49705691  .00010686  00000+0  44445-3 0  9994
2 52164  97.3806 286.3234 0007667 240.4200 119.6274 15.23928816 17327
SPACEBEE-138            
1 52166U 22033K   22205.50266976  .00011038  00000+0  46006-3 0  9993
2 52166  97.3829 286.3484 0009258 231.0438 128.9975 15.23835924 17326
SPACEBEE-130            
1 52176U 22033V   22205.50306556  .00012027  00000+0  49948-3 0  9990
2 52176  97.3815 286.3295 0005974 233.0576 127.0114 15.23957623 17324
SPACEBEE-139            
1 52177U 22033W   22205.19530746  .00009027  00000+0  38205-3 0  9996
2 52177  97.3831 285.9984 0008737 239.1425 120.8953 15.23380490 17271
SPACEBEE-129            
1 52179U 22033Y   22205.46293688  .00009861  00000+0  41705-3 0  9994
2 52179  97.3816 286.2347 0007297 240.5917 119.4592 15.23387255 17319
SPACEBEE-134            
1 52180U 22033Z   22205.46223652  .00007365  00000+0  31438-3 0  9999
2 52180  97.3813 286.2400 0007174 240.1821 119.8703 15.23165756 17310
SPACEBEE-131            
1 52181U 22033AA  22205.45712849  .00009659  00000+0  40727-3 0  9999
2 52181  97.3818 286.2452 0007416 242.2369 117.8116 15.23496840 17319
SPACEBEE-128            
1 52182U 22033AB  22205.19899304  .00010750  00000+0  45384-3 0  9991
2 52182  97.3832 285.9992 0007664 241.5644 118.4821 15.23422697 17278
SPACEBEE-133            
1 52183U 22033AC  22205.19280038  .00009959  00000+0  41957-3 0  9991
2 52183  97.3820 285.9905 0007452 242.6679 117.3800 15.23515873 17268
SPACEBEE-132            
1 52185U 22033AE  22205.44632524  .00011480  00000+0  48023-3 0  9995
2 52185  97.3825 286.2695 0007028 256.0860 103.9595 15.23720774 17311
SPACEBEE-137            
1 52186U 22033AF  22205.19358824  .00009847  00000+0  41608-3 0  9992
2 52186  97.3821 285.9952 0007683 241.5369 118.5094 15.23416174 17277
SPACEBEE-135            
1 52187U 22033AG  22205.18272257  .00011618  00000+0  48589-3 0  9991
2 52187  97.3829 286.0208 0007171 237.3133 122.7413 15.23723980 17274
SPACEBEE-143            
1 52394U 22047A   22205.50038612  .00006230  00000+0  34708-3 0  9999
2 52394  97.4503 289.5797 0010035  55.6895 304.5285 15.13917816 13954
SPACEBEENZ-15           
1 52395U 22047B   22205.21825068  .00008560  00000+0  46835-3 0  9999
2 52395  97.4500 289.3434 0010021  55.1371 305.0801 15.14454219 13917
SPACEBEENZ-16           
1 52396U 22047C   22205.48250990  .00008120  00000+0  44438-3 0  9994
2 52396  97.4501 289.6023 0010006  54.3651 305.8511 15.14464241 13957
SPACEBEENZ-17           
1 52397U 22047D   22205.48325660  .00007651  00000+0  41925-3 0  9998
2 52397  97.4501 289.6014 0010029  54.4530 305.7636 15.14435244 13958
SPACEBEENZ-18           
1 52398U 22047E   22205.48372168  .00007968  00000+0  43655-3 0  9997
2 52398  97.4500 289.6008 0010010  54.6470 305.5696 15.14428719 13959
SPACEBEE-140            
1 52399U 22047F   22205.48989821  .00007000  00000+0  38633-3 0  9995
2 52399  97.4503 289.5934 0010035  54.0826 306.1335 15.14209942 13970
SPACEBEE-141            
1 52400U 22047G   22205.49511903  .00006169  00000+0  34266-3 0  9994
2 52400  97.4505 289.5868 0010067  53.8312 306.3849 15.14031965 13951
SPACEBEE-142            
1 52401U 22047H   22205.49843020  .00005563  00000+0  31025-3 0  9990
2 52401  97.4503 289.5814 0010113  54.5297 305.6877 15.13924825 13951
SPACEBEENZ-20           
1 52402U 22047J   22205.48713265  .00007776  00000+0  42684-3 0  9998
2 52402  97.4498 289.5882 0010846  56.5198 303.7069 15.14359342 13954
SPACEBEENZ-22           
1 52403U 22047K   22205.48873422  .00007699  00000+0  42337-3 0  9990
2 52403  97.4495 289.5859 0010842  56.1504 304.0758 15.14299264 13954
SPACEBEENZ-19           
1 52404U 22047L   22205.48630764  .00007913  00000+0  43405-3 0  9997
2 52404  97.4496 289.5896 0010872  56.5483 303.6787 15.14382333 13957
SPACEBEENZ-21           
1 52405U 22047M   22205.48756081  .00007852  00000+0  43112-3 0  9996
2 52405  97.4495 289.5877 0010835  56.5336 303.6931 15.14346868 13956
SPACEBEE-148            
1 52406U 22047N   22205.49397759  .00006897  00000+0  38151-3 0  9996
2 52406  97.4497 289.5795 0010800  56.1523 304.0735 15.14130923 13954
SPACEBEE-149            
1 52407U 22047P   22205.50239081  .00005781  00000+0  32297-3 0  9998
2 52407  97.4496 289.5672 0010833  56.2581 303.9682 15.13842027 13952
SPACEBEE-153            
1 52408U 22047Q   22205.49555538  .00006160  00000+0  34127-3 0  9991
2 52408  97.4526 289.6074 0011117  66.0336 294.2059 15.14112279 13957
SPACEBEE-150            
1 52409U 22047R   22205.50104252  .00006316  00000+0  35178-3 0  9997
2 52409  97.4498 289.5703 0010771  56.8295 303.3969 15.13914474 13958
SPACEBEE-144            
1 52410U 22047S   22205.50077908  .00006389  00000+0  35577-3 0  9999
2 52410  97.4503 289.5793 0010042  56.3989 303.8200 15.13928323 13953
SPACEBEE-145            
1 52411U 22047T   22205.50244715  .00006145  00000+0  34283-3 0  9995
2 52411  97.4503 289.5764 0010027  56.1965 304.0220 15.13876579 13957
SPACEBEE-146            
1 52412U 22047U   22205.50638733  .00005810  00000+0  32553-3 0  9999
2 52412  97.4500 289.5694 0010070  56.8351 303.3845 15.13742625 13950
SPACEBEE-151            
1 52413U 22047V   22205.50358213  .00006304  00000+0  35165-3 0  9993
2 52413  97.4496 289.5667 0010751  57.6300 302.5971 15.13864457 13953
SPACEBEE-152            
1 52414U 22047W   22205.24280319  .00006806  00000+0  38038-3 0  9995
2 52414  97.4493 289.3016 0010724  57.7042 302.5227 15.13764304 13911
SPACEBEE-147            
1 52415U 22047X   22205.50618083  .00006436  00000+0  35949-3 0  9995
2 52415  97.4503 289.5722 0009994  58.0219 302.1982 15.13811811 13951
SPACEBEE-155            
1 52416U 22047Y   22205.51004635  .00005575  00000+0  31325-3 0  9996
2 52416  97.4492 289.5568 0011447  61.3324 298.9057 15.13644514 13956
SPACEBEE-154            
1 52417U 22047Z   22205.17814747  .00006408  00000+0  35881-3 0  9999
2 52417  97.4494 289.2365 0010701  59.7164 300.5125 15.13722530 13902
